[{"OBJECT_NAME":"STARLINK-5467","OBJECT_ID":"2023-021AJ","EPOCH":"2026-03-09T15:44:49.737408","MEAN_MOTION":14.98299745,"ECCENTRICITY":0.00034055,"INCLINATION":70.0014,"RA_OF_ASC_NODE":164.3842,"ARG_OF_PERICENTER":269.2197,"MEAN_ANOMALY":90.8572,"EPHEMERIS_TYPE":0,"CLASSIFICATION_TYPE":"U","NORAD_CAT_ID":55660,"ELEMENT_SET_NO":999,"REV_AT_EPOCH":16928,"BSTAR":0.00024740261,"MEAN_MOTION_DOT":2.858e-5,"MEAN_MOTION_DDOT":0},{"OBJECT_NAME":"SKYCRAFT-4B","OBJECT_ID":"2025-154D","EPOCH":"2026-03-09T23:31:04.324224","MEAN_MOTION":14.96290027,"ECCENTRICITY":0.00045249,"INCLINATION":97.6762,"RA_OF_ASC_NODE":135.4663,"ARG_OF_PERICENTER":218.6003,"MEAN_ANOMALY":141.4895,"EPHEMERIS_TYPE":0,"CLASSIFICATION_TYPE":"U","NORAD_CAT_ID":64872,"ELEMENT_SET_NO":999,"REV_AT_EPOCH":3420,"BSTAR":0.00083632264,"MEAN_MOTION_DOT":9.402e-5,"MEAN_MOTION_DDOT":0}]
